[
    {
        "Altitude(m)": 622200.0756017909,
        "Argument of Periapsis(deg)": 0.0,
        "Eccentricity": 0.0,
        "Inclination(deg)": 60.0,
        "Latitude(deg)": -52.162451014098025,
        "Longitude(deg)": 107.3607334223143,
        "Mean Anomaly(deg)": -65.45450000000002,
        "RAAN(deg)": 255.0,
        "Satellite Name": "Test1 1140",
        "Satellite Number": 1140,
        "Semi-Major Axis(m)": 6980739.136638005,
        "Time(s)": 0
    },
    {
        "Altitude(m)": 622058.243327744,
        "Argument of Periapsis(deg)": 0.00010418945913296404,
        "Eccentricity": 0.0,
        "Inclination(deg)": 60.0,
        "Latitude(deg)": -51.799200868478664,
        "Longitude(deg)": 108.12879007701098,
        "Mean Anomaly(deg)": -64.83439385453818,
        "RAAN(deg)": 254.99957995086027,
        "Satellite Name": "Test1 1140",
        "Satellite Number": 1140,
        "Semi-Major Axis(m)": 6980739.136638005,
        "Time(s)": 10
    }
]